NORAD_CAT_ID,OBJECT_NAME,OBJECT_TYPE,EPOCH,MEAN_MOTION,ECCENTRICITY,INCLINATION,RA_OF_ASC_NODE,ARG_OF_PERICENTER,MEAN_ANOMALY,BSTAR,MEAN_MOTION_DOT,MEAN_MOTION_DDOT,TLE_LINE0,TLE_LINE1,TLE_LINE2,SEMIMAJOR_AXIS,PERIOD,APOGEE,PERIGEE,DECAYED
52333.0,STARLINK-3847,PAYLOAD,2022-07-03 14:00:01,15.08851068,0.0001844,53.214,127.5391,57.1212,299.4653,-0.00059718,-9.783e-05,0.0,0 STARLINK-3847,1 52333U 22045C   22184.58334491 -.00009783  00000-0 -59718-3 0  9995,2 52333  53.2140 127.5391 0001844  57.1212 299.4653 15.08851068  1300,6917.847,95.437,540.987,538.436,0.0
52333.0,STARLINK-3847,PAYLOAD,2022-07-03 22:00:00,15.08865837,0.0001823,53.2143,126.0426,59.4084,308.776,-0.0031945,-0.00050807,0.0,0 STARLINK-3847,1 52333U 22045C   22184.91667824 -.00050807  00000-0 -31945-2 0  9995,2 52333  53.2143 126.0426 0001823  59.4084 308.7760 15.08865837  1307,6917.801,95.436,540.928,538.405,0.0
52333.0,STARLINK-3847,PAYLOAD,2022-07-04 14:00:01,15.0882947,0.0001808,53.2143,123.0497,57.4151,333.9546,-2.5812e-05,-6.99e-06,0.0,0 STARLINK-3847,1 52333U 22045C   22185.58334491 -.00000699  00000-0 -25812-4 0  9992,2 52333  53.2143 123.0497 0001808  57.4151 333.9546 15.08829470  1303,6917.913000000001,95.438,541.028,538.5269999999998,0.0
52333.0,STARLINK-3847,PAYLOAD,2022-07-04 22:00:00,15.08857849,0.0001826,53.2145,121.5535,60.0344,342.9212,-0.00083604,-0.00013576,0.0,0 STARLINK-3847,1 52333U 22045C   22185.91667824 -.00013576  00000-0 -83604-3 0  9998,2 52333  53.2145 121.5535 0001826  60.0344 342.9212 15.08857849  1306,6917.826,95.436,540.9540000000002,538.428,0.0
52333.0,STARLINK-3847,PAYLOAD,2022-07-05 08:00:01,15.08841645,0.0001936,53.2139,119.684,53.6353,93.8292,0.0016192,0.00025577,0.0,0 STARLINK-3847,1 52333U 22045C   22186.33334491  .00025577  00000-0  16192-2 0  9995,2 52333  53.2139 119.6840 0001936  53.6353  93.8292 15.08841645 12822,6917.875,95.437,541.08,538.401,0.0
52333.0,STARLINK-3847,PAYLOAD,2022-07-05 14:00:01,15.0885318,0.0001771999999999,53.2142,118.5602,59.5555,6.6191,-9.4615e-05,-1.794e-05,0.0,0 STARLINK-3847,1 52333U 22045C   22186.58334491 -.00001794  00000-0 -94615-4 0  9997,2 52333  53.2142 118.5602 0001772  59.5555   6.6191 15.08853180  1305,6917.84,95.437,540.931,538.479,0.0
52333.0,STARLINK-3847,PAYLOAD,2022-07-05 22:00:00,15.08862483,0.000176,53.2143,117.0641,60.6035,17.1753,-0.002825,-0.00044996,0.0,0 STARLINK-3847,1 52333U 22045C   22186.91667824 -.00044996  00000-0 -28250-2 0  9994,2 52333  53.2143 117.0641 0001760  60.6035  17.1753 15.08862483 12912,6917.812,95.436,540.894,538.4590000000002,0.0
52333.0,STARLINK-3847,PAYLOAD,2022-07-06 14:00:01,15.08825978,0.0001698,53.2138,114.0706,60.5763,40.3973,0.0011387,0.00017874,0.0,0 STARLINK-3847,1 52333U 22045C   22187.58334491  .00017874  00000-0  11387-2 0  9995,2 52333  53.2138 114.0706 0001698  60.5763  40.3973 15.08825978 13014,6917.9230000000025,95.438,540.9630000000002,538.614,0.0
52333.0,STARLINK-3847,PAYLOAD,2022-07-06 22:00:00,15.08858692,0.0001766,53.2138,112.5747,62.1308,50.4245,-0.0017092,-0.00027401,0.0,0 STARLINK-3847,1 52333U 22045C   22187.91667824 -.00027401  00000-0 -17092-2 0  9999,2 52333  53.2138 112.5747 0001766  62.1308  50.4245 15.08858692  1303,6917.823,95.436,540.91,538.467,0.0
52333.0,STARLINK-3847,PAYLOAD,2022-07-07 14:00:01,15.08849501,0.0001689,53.2133,109.5811,62.5329,73.2478,-0.00029394,-4.964e-05,0.0,0 STARLINK-3847,1 52333U 22045C   22188.58334491 -.00004964  00000-0 -29394-3 0  9992,2 52333  53.2133 109.5811 0001689  62.5329  73.2478 15.08849501  1307,6917.851,95.437,540.885,538.548,0.0
52333.0,STARLINK-3847,PAYLOAD,2022-07-07 22:00:00,15.08852765,0.0001716,53.2134,108.0852,62.6906,84.6948,-0.0020082,-0.00032118,0.0,0 STARLINK-3847,1 52333U 22045C   22188.91667824 -.00032118  00000-0 -20082-2 0  9994,2 52333  53.2134 108.0852 0001716  62.6906  84.6948 15.08852765 13217,6917.840999999999,95.437,540.893,538.519,0.0
52333.0,STARLINK-3847,PAYLOAD,2022-07-08 14:00:01,15.08786102,0.0001629,53.2156,105.087,56.9357,113.6579,-0.00050769,-8.347e-05,0.0,0 STARLINK-3847,1 52333U 22045C   22189.58334491 -.00008347  00000-0 -50769-3 0  9992,2 52333  53.2156 105.0870 0001629  56.9357 113.6579 15.08786102  1308,6918.045,95.441,541.0369999999998,538.783,0.0
52333.0,STARLINK-3847,PAYLOAD,2022-07-08 22:00:01,15.08866474,0.0001684,53.2134,103.5958,62.072,120.1537,-0.0034467,-0.00054766,0.0,0 STARLINK-3847,1 52333U 22045C   22189.91668981 -.00054766  00000-0 -34467-2 0  9995,2 52333  53.2134 103.5958 0001684  62.0720 120.1537 15.08866474 13364,6917.799,95.436,540.8290000000002,538.5,0.0
52333.0,STARLINK-3847,PAYLOAD,2022-07-09 14:00:01,15.08803999,0.0001835,53.2169,100.5961,64.1194,141.1862,0.0033171,0.00052848,0.0,0 STARLINK-3847,1 52333U 22045C   22190.58334491  .00052848  00000-0  33171-2 0  9994,2 52333  53.2169 100.5961 0001835  64.1194 141.1862 15.08803999  1307,6917.99,95.44,541.125,538.586,0.0
52333.0,STARLINK-3847,PAYLOAD,2022-07-09 20:00:01,15.08877845,0.0001805,53.2154,99.4758,64.4171,59.5915,-0.0076705,-0.00120456,0.0,0 STARLINK-3847,1 52333U 22045C   22190.83334491 -.00120456  00000-0 -76705-2 0  9995,2 52333  53.2154  99.4758 0001805  64.4171  59.5915 15.08877845  1308,6917.765,95.435,540.878,538.381,0.0
52333.0,STARLINK-3847,PAYLOAD,2022-07-10 06:00:00,15.08836778,0.0001896,53.2137,97.6108,57.1884,171.3207,0.0013803,0.00021746,0.0,0 STARLINK-3847,1 52333U 22045C   22191.25001157  .00021746  00000-0  13803-2 0  9992,2 52333  53.2137  97.6108 0001896  57.1884 171.3207 15.08836778 13566,6917.89,95.438,541.067,538.444,0.0
52333.0,STARLINK-3847,PAYLOAD,2022-07-10 14:00:01,15.08825462,0.0001727,53.2142,96.1125,62.68600000000001,177.4391,0.00093128,0.00014559,0.0,0 STARLINK-3847,1 52333U 22045C   22191.58334491  .00014559  00000-0  93128-3 0  9991,2 52333  53.2142  96.1125 0001727  62.6860 177.4391 15.08825462  1301,6917.925,95.438,540.985,538.595,0.0
52333.0,STARLINK-3847,PAYLOAD,2022-07-10 22:00:00,15.08845955,0.0001828,53.2145,94.6173,61.1231,190.5644,-0.0011165,-0.00018016,0.0,0 STARLINK-3847,1 52333U 22045C   22191.91667824 -.00018016  00000-0 -11165-2 0  9991,2 52333  53.2145  94.6173 0001828  61.1231 190.5644 15.08845955 13677,6917.861999999999,95.437,540.992,538.4630000000002,0.0
52333.0,STARLINK-3847,PAYLOAD,2022-07-11 14:00:01,15.08836464,0.0001732,53.2149,91.6234,63.4251,211.4674,0.0018568,0.00029384,0.0,0 STARLINK-3847,1 52333U 22045C   22192.58334491  .00029384  00000-0  18568-2 0  9998,2 52333  53.2149  91.6234 0001732  63.4251 211.4674 15.08836464 13779,6917.891,95.438,540.9540000000002,538.558,0.0
52333.0,STARLINK-3847,PAYLOAD,2022-07-11 22:00:00,15.08844514,0.0001758,53.2151,90.1283,59.7439,226.7475,-0.0014777,-0.00023732,0.0,0 STARLINK-3847,1 52333U 22045C   22192.91667824 -.00023732  00000-0 -14777-2 0  9995,2 52333  53.2151  90.1283 0001758  59.7439 226.7475 15.08844514  1303,6917.8669999999975,95.437,540.948,538.515,0.0
52333.0,STARLINK-3847,PAYLOAD,2022-07-12 06:00:00,15.08839071,0.0001786999999999,53.2149,88.6324,55.7362,242.3433,0.0006498999999999,0.0001007,0.0,0 STARLINK-3847,1 52333U 22045C   22193.25001157  .00010070  00000-0  64990-3 0  9996,2 52333  53.2149  88.6324 0001787  55.7362 242.3433 15.08839071 13876,6917.8830000000025,95.438,540.984,538.512,0.0
52333.0,STARLINK-3847,PAYLOAD,2022-07-12 14:00:01,15.08833121,0.0001621,53.2153,87.1343,63.5693,246.1255,0.0031279,0.00049835,0.0,0 STARLINK-3847,1 52333U 22045C   22193.58334491  .00049835  00000-0  31279-2 0  9996,2 52333  53.2153  87.1343 0001621  63.5693 246.1255 15.08833121  1306,6917.901,95.438,540.888,538.645,0.0
52333.0,STARLINK-3847,PAYLOAD,2022-07-12 22:00:00,15.08867644,0.0001684,53.2154,85.6393,59.4086,261.8986,-0.0025173,-0.00040158,0.0,0 STARLINK-3847,1 52333U 22045C   22193.91667824 -.00040158  00000-0 -25173-2 0  9999,2 52333  53.2154  85.6393 0001684  59.4086 261.8986 15.08867644  1306,6917.795999999999,95.436,540.826,538.496,0.0
52333.0,STARLINK-3847,PAYLOAD,2022-07-13 14:00:01,15.08805734,0.0001568,53.2151,82.6452,64.8761,279.6528,0.0010306,0.00016137,0.0,0 STARLINK-3847,1 52333U 22045C   22194.58334491  .00016137  00000-0  10306-2 0  9994,2 52333  53.2151  82.6452 0001568  64.8761 279.6528 15.08805734 14076,6917.985,95.44,540.935,538.765,0.0
52333.0,STARLINK-3847,PAYLOAD,2022-07-13 22:00:00,15.08854626,0.0001576999999999,53.2151,81.1503,57.8536,298.2261,-0.003083,-0.0004904,0.0,0 STARLINK-3847,1 52333U 22045C   22194.91667824 -.00049040  00000-0 -30830-2 0  9995,2 52333  53.2151  81.1503 0001577  57.8536 298.2261 15.08854626  1306,6917.8359999999975,95.437,540.7919999999998,538.61,0.0
52333.0,STARLINK-3847,PAYLOAD,2022-07-14 14:00:01,15.08802045,0.0001531999999999,53.2145,78.156,66.2541,313.0037,0.0035144,0.0005603,0.0,0 STARLINK-3847,1 52333U 22045C   22195.58334491  .00056030  00000-0  35144-2 0  9998,2 52333  53.2145  78.1560 0001532  66.2541 313.0037 15.08802045  1304,6917.996,95.44,540.9209999999998,538.802,0.0
52333.0,STARLINK-3847,PAYLOAD,2022-07-14 22:00:00,15.08841363,0.0001654,53.2144,76.6612,61.097,329.732,-0.00086501,-0.00014029,0.0,0 STARLINK-3847,1 52333U 22045C   22195.91667824 -.00014029  00000-0 -86501-3 0  9992,2 52333  53.2144  76.6612 0001654  61.0970 329.7320 15.08841363 14273,6917.876,95.437,540.885,538.597,0.0
52333.0,STARLINK-3847,PAYLOAD,2022-07-15 14:00:01,15.08803722,0.0001447,53.2139,73.6666,66.0936,347.9268,0.003342,0.00053249,0.0,0 STARLINK-3847,1 52333U 22045C   22196.58334491  .00053249  00000-0  33420-2 0  9993,2 52333  53.2139  73.6666 0001447  66.0936 347.9268 15.08803722  1300,6917.991,95.44,540.857,538.855,0.0
52333.0,STARLINK-3847,PAYLOAD,2022-07-15 22:00:00,15.08839892,0.0001595999999999,53.2138,72.1717,60.5284,5.0666,-0.00057717,-9.462e-05,0.0,0 STARLINK-3847,1 52333U 22045C   22196.91667824 -.00009462  00000-0 -57717-3 0  9995,2 52333  53.2138  72.1717 0001596  60.5284   5.0666 15.08839892 14428,6917.880999999999,95.438,540.85,538.6419999999998,0.0
